{"type":"Feature","properties":{"MUN":"BARNEGAT TWP","COUNTY":"OCEAN","MUN_LABEL":"Barnegat Township","MUN_TYPE":"Township","NAME":"Barnegat Township","GNIS_NAME":"Township of Barnegat"},"geometry":{"type":"Polygon","coordinates":[[[-74.1558459,39.7549475],[-74.1557837,39.7548978],[-74.1557226,39.7548473],[-74.1556626,39.7547961],[-74.1556037,39.7547442],[-74.1555731,39.7547163],[-74.1555416,39.7546868],[-74.155509,39.7546554],[-74.1554745,39.7546215],[-74.1554113,39.7545577],[-74.1552613,39.7544037],[-74.1549763,39.7541163],[-74.1548972,39.7540351],[-74.1548273,39.7539619],[-74.1547554,39.7538847],[-74.1546895,39.7538115],[-74.1546283,39.7537412],[-74.1545713,39.7536729],[-74.1545103,39.7535967],[-74.1544451,39.7535119],[-74.154375,39.7534181],[-74.1542718,39.7532773],[-74.1541857,39.7531583],[-74.1541013,39.7530394],[-74.1540186,39.7529205],[-74.1539376,39.7528016],[-74.1538584,39.7526828],[-74.153781,39.752564],[-74.1537053,39.7524453],[-74.1536315,39.7523267],[-74.1535444,39.7521852],[-74.1534916,39.7520977],[-74.1534443,39.7520163],[-74.1534033,39.751942],[-74.1533783,39.7518937],[-74.1533519,39.7518392],[-74.1533279,39.7517874],[-74.1532742,39.7516683],[-74.1532483,39.751613],[-74.1532255,39.7515665],[-74.1532035,39.7515244],[-74.1531859,39.7514923],[-74.1531668,39.7514591],[-74.1531462,39.7514244],[-74.1531237,39.7513878],[-74.1530759,39.7513129],[-74.1529781,39.7511642],[-74.1529375,39.7511013],[-74.1528962,39.7510349],[-74.1528608,39.7509749],[-74.1528219,39.7509044],[-74.1527831,39.7508304],[-74.1527441,39.7507519],[-74.1527041,39.7506677],[-74.1526688,39.7505904],[-74.1526307,39.7505043],[-74.1524988,39.7501975],[-74.1524449,39.7500748],[-74.1524154,39.7500098],[-74.1523872,39.7499491],[-74.1523596,39.7498917],[-74.1523324,39.749837],[-74.1522364,39.7496486],[-74.1521507,39.7494834],[-74.1520702,39.7493313],[-74.151993,39.7491891],[-74.151917,39.7490528],[-74.1518425,39.748923],[-74.1517687,39.7487984],[-74.151732,39.7487379],[-74.1516953,39.7486786],[-74.1516588,39.7486209],[-74.1516199,39.7485613],[-74.1515782,39.7484995],[-74.1515333,39.7484345],[-74.1514839,39.7483645],[-74.1514285,39.7482876],[-74.1512001,39.7479765],[-74.1511481,39.7479048],[-74.151102,39.7478403],[-74.1510496,39.7477655],[-74.1510017,39.7476953],[-74.1509573,39.7476282],[-74.150916,39.7475636],[-74.1508704,39.7474895],[-74.1508215,39.7474074],[-74.1507699,39.7473188],[-74.1506231,39.7470632],[-74.1505762,39.7469836],[-74.1505332,39.7469126],[-74.1504757,39.7468206],[-74.1504143,39.7467255],[-74.1503487,39.7466265],[-74.1502777,39.7465222],[-74.1502032,39.7464149],[-74.1501196,39.7462967],[-74.1500315,39.7461737],[-74.1497844,39.7458308],[-74.149709,39.7457249],[-74.149642,39.7456296],[-74.1495658,39.7455193],[-74.1494959,39.7454158],[-74.149431,39.7453171],[-74.1493703,39.7452221],[-74.1492429,39.7450187],[-74.1491428,39.744857],[-74.1490533,39.7447102],[-74.1489721,39.7445743],[-74.1488952,39.7444425],[-74.1488238,39.7443167],[-74.148757,39.7441954],[-74.1486944,39.7440778],[-74.1486578,39.7440071],[-74.1486208,39.7439342],[-74.1485832,39.7438589],[-74.1485449,39.7437807],[-74.1485057,39.7436996],[-74.1484652,39.7436144],[-74.1483774,39.7434261],[-74.148336,39.7433372],[-74.1482365,39.7431274],[-74.148192,39.7430323],[-74.1481461,39.7429313],[-74.1481065,39.7428405],[-74.1480856,39.7427905],[-74.1480661,39.7427423],[-74.1480479,39.7426955],[-74.1480309,39.7426499],[-74.148015,39.7426054],[-74.1480002,39.7425617],[-74.1479864,39.7425188],[-74.1479737,39.7424766],[-74.1479546,39.742408],[-74.1479367,39.742336],[-74.1479196,39.7422601],[-74.1479031,39.742179],[-74.1478883,39.7420994],[-74.1478731,39.7420106],[-74.1478266,39.7417169],[-74.147809,39.7416047],[-74.1477935,39.7415012],[-74.1477796,39.7414036],[-74.1477673,39.7413107],[-74.1477562,39.7412209],[-74.1477465,39.7411342],[-74.1477381,39.7410501],[-74.1477309,39.7409683],[-74.1477216,39.7408448],[-74.1477141,39.7407233],[-74.1477085,39.7406038],[-74.1477047,39.7404862],[-74.1477027,39.7403704],[-74.1477025,39.7402564],[-74.1477042,39.7401441],[-74.1477076,39.7400334],[-74.1477114,39.7399552],[-74.1477167,39.7398754],[-74.1477234,39.7397941],[-74.1477315,39.7397109],[-74.1477412,39.7396257],[-74.1477524,39.7395382],[-74.1477651,39.7394481],[-74.1477795,39.7393547],[-74.147794,39.7392668],[-74.1478101,39.7391751],[-74.1478279,39.7390785],[-74.1478477,39.7389752],[-74.1478862,39.7387833],[-74.1479817,39.7383204],[-74.1480443,39.7380135],[-74.1480675,39.7379037],[-74.1480894,39.7378041],[-74.1481118,39.7377064],[-74.148134,39.7376143],[-74.1481562,39.7375265],[-74.1481787,39.7374422],[-74.1482054,39.7373465],[-74.1482331,39.737251],[-74.1482617,39.7371558],[-74.1482913,39.737061],[-74.1483218,39.7369665],[-74.1483533,39.7368724],[-74.1483857,39.7367787],[-74.148419,39.7366854],[-74.1484508,39.7366006],[-74.1484859,39.7365126],[-74.1485246,39.7364205],[-74.1485675,39.7363228],[-74.1486088,39.7362323],[-74.1486556,39.7361321],[-74.1487032,39.7360323],[-74.1488296,39.7357695],[-74.1488993,39.7356212],[-74.1489358,39.7355414],[-74.1489691,39.7354666],[-74.1489998,39.7353954],[-74.1490282,39.735327],[-74.1491196,39.7351015],[-74.1491835,39.7349398],[-74.1492125,39.7348644],[-74.1492393,39.7347929],[-74.1492642,39.7347244],[-74.1492876,39.7346583],[-74.1493255,39.7345486],[-74.1493567,39.7344561],[-74.1493845,39.7343714],[-74.1494094,39.7342925],[-74.1494325,39.7342164],[-74.1494534,39.7341436],[-74.1494725,39.7340735],[-74.1494898,39.7340055],[-74.1495036,39.7339474],[-74.1495168,39.7338882],[-74.1495293,39.7338277],[-74.1495412,39.7337659],[-74.1495525,39.7337027],[-74.1495632,39.7336379],[-74.1495734,39.7335713],[-74.1495831,39.7335027],[-74.149592,39.7334339],[-74.1496006,39.7333625],[-74.1496088,39.7332881],[-74.1496168,39.7332099],[-74.1496322,39.733041],[-74.1496496,39.7328248],[-74.1496562,39.7327363],[-74.1496619,39.7326519],[-74.1496667,39.7325707],[-74.1496708,39.7324923],[-74.149674,39.7324159],[-74.1496765,39.7323417],[-74.1496783,39.7322692],[-74.1496792,39.7321983],[-74.1496797,39.7321002],[-74.1496795,39.7320133],[-74.1496785,39.7319328],[-74.1496767,39.7318572],[-74.149674,39.7317844],[-74.1496705,39.7317147],[-74.1496661,39.7316475],[-74.1496608,39.7315824],[-74.1496536,39.7315099],[-74.1496448,39.7314352],[-74.1496345,39.7313581],[-74.1496225,39.731278],[-74.1496089,39.731195],[-74.1495935,39.7311073],[-74.1495759,39.7310137],[-74.1495555,39.7309106],[-74.1495351,39.7308115],[-74.149516,39.7307224],[-74.1494972,39.7306393],[-74.1494786,39.7305611],[-74.1494596,39.7304859],[-74.1494403,39.7304138],[-74.1494206,39.7303443],[-74.1494003,39.7302772],[-74.1493839,39.7302263],[-74.149366,39.7301734],[-74.1493464,39.7301178],[-74.1493246,39.7300587],[-74.1492795,39.7299414],[-74.1491876,39.7297091],[-74.1490964,39.7294783],[-74.1490605,39.7293892],[-74.1490271,39.7293077],[-74.148994,39.7292287],[-74.1489619,39.729154],[-74.1489305,39.7290826],[-74.1488995,39.729014],[-74.1488688,39.7289477],[-74.1488375,39.7288812],[-74.1488054,39.7288145],[-74.1487727,39.7287477],[-74.1487052,39.7286134],[-74.1486351,39.7284785],[-74.1485819,39.7283787],[-74.1485294,39.728282],[-74.1484774,39.7281879],[-74.1484256,39.7280963],[-74.1483741,39.7280069],[-74.1483227,39.7279195],[-74.1482714,39.7278341],[-74.14822,39.7277505],[-74.1481684,39.7276684],[-74.1481166,39.7275879],[-74.1480647,39.727509],[-74.1480125,39.7274315],[-74.14796,39.7273555],[-74.1479072,39.7272809],[-74.1478541,39.7272076],[-74.1478006,39.7271356],[-74.1477556,39.7270764],[-74.1477095,39.7270167],[-74.1476622,39.7269566],[-74.1476138,39.726896],[-74.1475642,39.726835],[-74.1475134,39.7267734],[-74.1474613,39.7267113],[-74.147408,39.7266485],[-74.1473585,39.7265911],[-74.1473087,39.7265342],[-74.1472588,39.7264778],[-74.1472085,39.7264218],[-74.1471581,39.7263664],[-74.1471074,39.7263114],[-74.1470564,39.726257],[-74.1470052,39.726203],[-74.1469538,39.7261495],[-74.1469022,39.7260966],[-74.1468503,39.7260441],[-74.1467982,39.7259922],[-74.1467459,39.7259407],[-74.1466934,39.7258898],[-74.1466407,39.7258394],[-74.1465877,39.7257895],[-74.1465026,39.7257107],[-74.1464184,39.7256342],[-74.146335,39.7255599],[-74.1462522,39.7254876],[-74.1461699,39.7254174],[-74.1460881,39.725349],[-74.1460067,39.7252825],[-74.1459255,39.7252178],[-74.1458782,39.7251811],[-74.1458282,39.7251434],[-74.145775,39.7251042],[-74.1457177,39.725063],[-74.1456037,39.7249831],[-74.1453837,39.724832],[-74.1452942,39.7247698],[-74.1452022,39.7247045],[-74.1451209,39.7246449],[-74.1450412,39.724585],[-74.1449597,39.7245229],[-74.1448759,39.7244584],[-74.1447893,39.724391],[-74.1446999,39.7243207],[-74.1446059,39.7242462],[-74.1443963,39.7240781],[-74.1442991,39.7240004],[-74.1441916,39.7239153],[-74.1440696,39.7238198],[-74.1437027,39.7235339],[-74.1435867,39.7234425],[-74.1434833,39.72336],[-74.1433647,39.7232639],[-74.1432554,39.7231734],[-74.1431533,39.7230867],[-74.1430572,39.7230029],[-74.1430035,39.722955],[-74.1429515,39.7229078],[-74.1429011,39.7228611],[-74.1428522,39.7228149],[-74.1428047,39.7227691],[-74.1427586,39.7227236],[-74.1427138,39.7226785],[-74.1426702,39.7226337],[-74.1426279,39.722589],[-74.1425868,39.7225445],[-74.1425468,39.7225001],[-74.142508,39.722456],[-74.1424703,39.7224119],[-74.1424337,39.7223679],[-74.1423983,39.7223239],[-74.1423639,39.72228],[-74.142315,39.7222156],[-74.1422656,39.7221482],[-74.1422155,39.7220777],[-74.1421642,39.7220033],[-74.142112,39.7219255],[-74.1420571,39.7218418],[-74.1419984,39.7217503],[-74.1419314,39.7216441],[-74.1418325,39.7214873],[-74.1418049,39.7214427],[-74.1417807,39.7214026],[-74.1417561,39.7213606],[-74.1417338,39.7213209],[-74.1417133,39.721283],[-74.1416946,39.7212464],[-74.1416753,39.7212067],[-74.1416563,39.7211653],[-74.1416373,39.7211222],[-74.1416182,39.7210769],[-74.1415992,39.7210296],[-74.1415795,39.7209789],[-74.1415589,39.7209237],[-74.1415357,39.72086],[-74.1415126,39.7207949],[-74.1414918,39.7207339],[-74.1414728,39.7206758],[-74.1414555,39.7206202],[-74.1414397,39.7205663],[-74.1414252,39.7205141],[-74.1414122,39.7204633],[-74.1414005,39.7204137],[-74.1413905,39.7203667],[-74.1413811,39.7203177],[-74.1413723,39.7202662],[-74.141364,39.7202115],[-74.1413565,39.720156],[-74.1413489,39.7200946],[-74.1413295,39.7199181],[-74.1413223,39.719849],[-74.1413159,39.7197797],[-74.14131,39.7197102],[-74.1413049,39.7196405],[-74.1413004,39.7195707],[-74.1412966,39.7195008],[-74.1412934,39.7194308],[-74.141291,39.7193606],[-74.1412892,39.7192903],[-74.141288,39.7192199],[-74.1412876,39.7191495],[-74.1412878,39.719079],[-74.1412886,39.7190084],[-74.1412902,39.7189378],[-74.1412924,39.7188671],[-74.1412953,39.7187964],[-74.1412989,39.7187273],[-74.1413034,39.7186561],[-74.1413089,39.7185823],[-74.1413155,39.7185055],[-74.141323,39.7184257],[-74.1413317,39.718341],[-74.1413417,39.71825],[-74.1413536,39.718148],[-74.1413612,39.7180862],[-74.1413697,39.7180216],[-74.1413901,39.717881],[-74.141411,39.7177465],[-74.141464,39.7174177],[-74.1415132,39.7171039],[-74.1415424,39.7169227],[-74.1415709,39.7167529],[-74.1415982,39.7165996],[-74.1416307,39.7164249],[-74.1416638,39.7162524],[-74.1416969,39.7160845],[-74.1417298,39.7159228],[-74.1417622,39.7157688],[-74.1417939,39.7156227],[-74.1418249,39.7154853],[-74.141855,39.7153568],[-74.1418973,39.7151341],[-74.141958,39.714819],[-74.1420204,39.7145042],[-74.1420846,39.7141896],[-74.1421506,39.7138752],[-74.1422182,39.7135611],[-74.1422877,39.7132473],[-74.1423588,39.7129337],[-74.1424317,39.7126203],[-74.1426006,39.7118943],[-74.1426653,39.7116202],[-74.142702,39.7114676],[-74.1427369,39.7113252],[-74.1427707,39.7111901],[-74.1428038,39.711061],[-74.1428401,39.7109227],[-74.1428762,39.7107894],[-74.142912,39.7106605],[-74.142948,39.7105352],[-74.1429841,39.7104132],[-74.1430205,39.7102941],[-74.1430572,39.7101776],[-74.1430943,39.7100636],[-74.1431547,39.7098847],[-74.1432178,39.7097035],[-74.1432837,39.7095201],[-74.1433526,39.7093342],[-74.1434243,39.7091457],[-74.1434992,39.7089543],[-74.1435771,39.7087597],[-74.1436584,39.7085617],[-74.1437369,39.7083715],[-74.1437778,39.7082741],[-74.1438188,39.7081802],[-74.1438574,39.7080961],[-74.1438832,39.7080429],[-74.1439134,39.7079839],[-74.1439428,39.7079284],[-74.1440113,39.707801],[-74.1440428,39.707741],[-74.144069,39.7076893],[-74.1440919,39.7076417],[-74.1441063,39.7076101],[-74.1441205,39.7075768],[-74.1441348,39.7075415],[-74.1441495,39.7075036],[-74.1441754,39.7074321],[-74.1442376,39.7072537],[-74.144256,39.707204],[-74.1442733,39.7071594],[-74.1442935,39.7071111],[-74.1443139,39.7070662],[-74.1443347,39.707024],[-74.1443563,39.7069841],[-74.1443746,39.7069528],[-74.1443959,39.7069189],[-74.1444209,39.7068811],[-74.1444969,39.7067686],[-74.1445201,39.7067324],[-74.1445397,39.7066997],[-74.1445654,39.7066532],[-74.1445918,39.7066014],[-74.1446187,39.7065446],[-74.1446715,39.7064289],[-74.1446944,39.7063799],[-74.1447196,39.7063288],[-74.1447436,39.7062835],[-74.1447672,39.7062416],[-74.144792,39.7061995],[-74.1448178,39.7061574],[-74.1448447,39.7061152],[-74.1448727,39.7060728],[-74.1449019,39.7060302],[-74.1449322,39.7059875],[-74.1449636,39.7059445],[-74.1449963,39.7059013],[-74.1450301,39.7058578],[-74.1450652,39.7058139],[-74.1451016,39.7057697],[-74.1451393,39.705725],[-74.1451784,39.7056797],[-74.145219,39.7056339],[-74.1452612,39.7055873],[-74.1453299,39.7055135],[-74.1454032,39.705437],[-74.1454817,39.7053573],[-74.1455667,39.7052729],[-74.1456463,39.7051954],[-74.1457356,39.7051098],[-74.146059,39.7048039],[-74.1461888,39.7046798],[-74.1462575,39.7046132],[-74.146321,39.7045506],[-74.1463806,39.7044909],[-74.146437,39.7044335],[-74.1465169,39.7043523],[-74.1466017,39.7042682],[-74.146692,39.7041803],[-74.1467898,39.7040872],[-74.1468783,39.704004],[-74.1469774,39.703912],[-74.1473236,39.7035938],[-74.1474588,39.7034687],[-74.1475954,39.7033403],[-74.1476576,39.7032809],[-74.1477166,39.7032238],[-74.1477845,39.7031573],[-74.1478491,39.7030929],[-74.1479109,39.7030301],[-74.1479701,39.7029687],[-74.1480272,39.7029084],[-74.148082,39.702849],[-74.1481349,39.7027904],[-74.1481859,39.7027325],[-74.1482806,39.7026227],[-74.1483716,39.702515],[-74.1484594,39.7024093],[-74.1485439,39.7023052],[-74.1486255,39.7022025],[-74.1487042,39.7021012],[-74.1487801,39.7020012],[-74.1488532,39.7019023],[-74.1489142,39.7018175],[-74.148975,39.7017306],[-74.1490355,39.7016416],[-74.149096,39.7015503],[-74.1491564,39.7014565],[-74.1492171,39.70136],[-74.149278,39.7012606],[-74.1493396,39.7011577],[-74.1494001,39.7010543],[-74.1494618,39.7009466],[-74.149525,39.7008342],[-74.1495904,39.7007157],[-74.1496573,39.7005926],[-74.1497287,39.7004591],[-74.1498067,39.7003118],[-74.1499023,39.7001295],[-74.1499888,39.6999631],[-74.1500647,39.6998146],[-74.150134,39.6996764],[-74.150198,39.699546],[-74.1502582,39.69942],[-74.1503144,39.6992987],[-74.1503672,39.6991812],[-74.1504168,39.6990669],[-74.1504498,39.6989883],[-74.1504834,39.698906],[-74.1505181,39.6988191],[-74.1505545,39.698726],[-74.1668094,39.7092181],[-74.1667578,39.7092341],[-74.1667061,39.7092486],[-74.1666541,39.7092615],[-74.1666019,39.709273],[-74.1665496,39.709283],[-74.166497,39.7092915],[-74.1664443,39.7092984],[-74.1663913,39.7093039],[-74.1663632,39.7093058],[-74.1663337,39.7093065],[-74.1663025,39.7093062],[-74.1662689,39.7093048],[-74.1662397,39.7093028],[-74.1662072,39.7093],[-74.1661022,39.7092893],[-74.1660653,39.7092858],[-74.1660306,39.7092832],[-74.1659992,39.7092815],[-74.1659706,39.7092807],[-74.1659437,39.7092808],[-74.1659179,39.7092817],[-74.1658932,39.7092835],[-74.1658452,39.7092882],[-74.1658065,39.7092925],[-74.1657715,39.709297],[-74.1657396,39.7093019],[-74.1657092,39.7093074],[-74.1656808,39.7093135],[-74.1656541,39.7093202],[-74.165629,39.7093275],[-74.1655954,39.7093388],[-74.1655625,39.7093513],[-74.1655306,39.7093649],[-74.1654998,39.7093794],[-74.1654705,39.7093947],[-74.1654427,39.7094108],[-74.1654168,39.7094275],[-74.1653927,39.7094449],[-74.1653803,39.7094546],[-74.165368,39.709465],[-74.1653431,39.7094879],[-74.1653178,39.7095137],[-74.1652914,39.7095431],[-74.1652854,39.7095505],[-74.1652796,39.7095584],[-74.1652684,39.7095766],[-74.1652587,39.709595],[-74.165236,39.7096418],[-74.165229,39.7096545],[-74.1652222,39.7096656],[-74.165214,39.7096774],[-74.1652053,39.7096878],[-74.1651961,39.709697],[-74.1651863,39.7097051],[-74.1651687,39.7097175],[-74.1651506,39.709729],[-74.1651324,39.7097392],[-74.1651142,39.7097482],[-74.1650964,39.7097557],[-74.1650789,39.7097617],[-74.1650618,39.7097663],[-74.1650451,39.7097695],[-74.1650282,39.7097711],[-74.1650087,39.7097714],[-74.1649895,39.7097706],[-74.1649439,39.7097675],[-74.1649267,39.7097665],[-74.1649094,39.7097649],[-74.1648917,39.7097629],[-74.1648738,39.7097604],[-74.1648369,39.7097539],[-74.164798,39.7097454],[-74.1647607,39.7097359],[-74.1647196,39.7097242],[-74.164678,39.7097114],[-74.1645653,39.7096756],[-74.164531,39.7096653],[-74.1645001,39.7096567],[-74.1644644,39.7096477],[-74.1644309,39.7096403],[-74.1643988,39.7096344],[-74.1643678,39.7096299],[-74.1643046,39.7096217],[-74.1642741,39.7096183],[-74.1642441,39.7096161],[-74.1642173,39.7096157],[-74.1641906,39.7096168],[-74.164163,39.7096191],[-74.1641348,39.7096228],[-74.164106,39.7096277],[-74.1640767,39.7096339],[-74.1640473,39.7096412],[-74.1640179,39.7096497],[-74.1639889,39.7096593],[-74.163974,39.709665],[-74.1639591,39.7096718],[-74.163944,39.7096797],[-74.1639285,39.7096888],[-74.1639129,39.7096989],[-74.1638962,39.7097106],[-74.1638309,39.70976],[-74.1638158,39.7097709],[-74.163802,39.7097804],[-74.1637857,39.7097907],[-74.16377,39.7097996],[-74.1637545,39.7098074],[-74.1637392,39.709814],[-74.1636904,39.7098327],[-74.1636704,39.7098396],[-74.1636517,39.7098455],[-74.1636336,39.7098507],[-74.1636163,39.7098549],[-74.1635996,39.7098582],[-74.1635834,39.7098608],[-74.1635681,39.7098624],[-74.1635519,39.7098635],[-74.1635348,39.709864],[-74.1635165,39.7098639],[-74.1634976,39.7098633],[-74.1634768,39.7098621],[-74.1634202,39.7098574],[-74.1634001,39.7098552],[-74.1633793,39.7098517],[-74.1633576,39.7098471],[-74.1633346,39.7098413],[-74.1633147,39.7098356],[-74.1632927,39.7098287],[-74.1631965,39.7097968],[-74.1631722,39.7097895],[-74.16315,39.7097836],[-74.1631286,39.7097788],[-74.1631082,39.7097751],[-74.1630885,39.7097725],[-74.1630694,39.7097709],[-74.163022,39.7097691],[-74.1630008,39.7097689],[-74.1629807,39.7097691],[-74.1629615,39.7097699],[-74.1629432,39.7097711],[-74.1629257,39.7097728],[-74.1629089,39.709775],[-74.1628621,39.709782],[-74.1628467,39.7097849],[-74.1628332,39.709788],[-74.1628202,39.7097916],[-74.1628086,39.7097956],[-74.1627983,39.7098001],[-74.1627891,39.709805],[-74.1627794,39.7098113],[-74.16277,39.7098184],[-74.162761,39.7098261],[-74.1627527,39.7098341],[-74.1627454,39.7098424],[-74.1627391,39.7098507],[-74.1627339,39.709859],[-74.1627298,39.7098672],[-74.1627274,39.7098739],[-74.1627257,39.7098813],[-74.1627246,39.7098893],[-74.1627242,39.709898],[-74.1627245,39.7099071],[-74.1627254,39.7099172],[-74.1627295,39.7099443],[-74.1627315,39.7099533],[-74.1627344,39.7099622],[-74.1627383,39.709971],[-74.1627431,39.7099797],[-74.1627489,39.7099884],[-74.1627557,39.7099971],[-74.1627635,39.7100059],[-74.1627724,39.7100147],[-74.1627902,39.7100302],[-74.162812,39.7100468],[-74.1628354,39.710063],[-74.1628999,39.7101058],[-74.1629183,39.7101189],[-74.1629341,39.710131],[-74.1629507,39.7101452],[-74.1629647,39.7101589],[-74.1629763,39.7101725],[-74.1629858,39.7101862],[-74.1629963,39.7102038],[-74.1630057,39.7102207],[-74.1630142,39.710237],[-74.1630217,39.7102529],[-74.1630284,39.7102684],[-74.1630342,39.7102834],[-74.1630392,39.7102981],[-74.1630432,39.7103124],[-74.1630474,39.71033],[-74.1630507,39.7103469],[-74.1630532,39.7103632],[-74.1630549,39.7103789],[-74.1630557,39.7103941],[-74.1630558,39.7104087],[-74.163055,39.7104229],[-74.1630534,39.7104364],[-74.1630512,39.7104489],[-74.1630484,39.7104615],[-74.1630449,39.710474],[-74.1630409,39.7104864],[-74.1630364,39.7104986],[-74.1630313,39.7105105],[-74.1630257,39.7105222],[-74.1630197,39.7105334],[-74.1630134,39.710544],[-74.1630063,39.7105546],[-74.1629985,39.7105653],[-74.1629901,39.7105761],[-74.1629809,39.7105868],[-74.1629712,39.7105974],[-74.1629501,39.7106183],[-74.1629396,39.7106272],[-74.1629278,39.7106357],[-74.1629144,39.7106439],[-74.1628994,39.7106519],[-74.162883,39.7106596],[-74.1628641,39.7106675],[-74.1627856,39.7106968],[-74.1627681,39.7107038],[-74.1627528,39.7107104],[-74.1627359,39.7107186],[-74.1627209,39.710727],[-74.1627076,39.7107356],[-74.1626958,39.7107446],[-74.1626718,39.7107654],[-74.1626521,39.7107843],[-74.1626357,39.7108022],[-74.1626287,39.7108109],[-74.1626225,39.7108194],[-74.1626136,39.7108338],[-74.162606,39.7108494],[-74.1625996,39.7108665],[-74.1625943,39.7108853],[-74.1625903,39.7109039],[-74.162587,39.710925],[-74.1625793,39.710997],[-74.1625781,39.7110105],[-74.1625778,39.7110246],[-74.1625782,39.7110395],[-74.1625795,39.7110555],[-74.1625835,39.7110853],[-74.1625955,39.7111566],[-74.1625979,39.7111756],[-74.1625993,39.7111926],[-74.1625998,39.7112104],[-74.1625991,39.7112269],[-74.1625972,39.7112427],[-74.1625941,39.7112576],[-74.1625869,39.7112877],[-74.1625822,39.7113035],[-74.1625762,39.711318],[-74.1625728,39.7113243],[-74.162569,39.7113302],[-74.1625636,39.7113373],[-74.1625576,39.7113444],[-74.162551,39.7113513],[-74.1625438,39.7113581],[-74.1625363,39.7113645],[-74.1625284,39.7113706],[-74.1625202,39.7113763],[-74.1625118,39.7113814],[-74.1625039,39.7113858],[-74.1624953,39.7113899],[-74.1624762,39.7113976],[-74.1624549,39.7114043],[-74.1624323,39.7114098],[-74.1624212,39.7114116],[-74.1624095,39.7114123],[-74.1623971,39.7114119],[-74.1623838,39.7114105],[-74.1623698,39.7114082],[-74.1623542,39.7114047],[-74.1622914,39.7113874],[-74.1622771,39.7113839],[-74.1622644,39.7113813],[-74.1622498,39.7113791],[-74.1622363,39.711378],[-74.1622236,39.711378],[-74.1622117,39.7113791],[-74.1622003,39.711381],[-74.1621885,39.7113834],[-74.1621634,39.71139],[-74.1621363,39.7113988],[-74.1621065,39.7114101],[-74.1620897,39.7114176],[-74.1620737,39.7114263],[-74.1620587,39.7114362],[-74.1620445,39.7114473],[-74.1620311,39.7114597],[-74.1620185,39.7114734],[-74.1620065,39.7114885],[-74.1619951,39.7115051],[-74.1619864,39.7115194],[-74.1619779,39.7115349],[-74.1619695,39.7115518],[-74.1619611,39.7115703],[-74.1619466,39.7116055],[-74.1619132,39.7116929],[-74.1619035,39.7117163],[-74.1618941,39.711737],[-74.1618834,39.7117581],[-74.1618724,39.7117773],[-74.161861,39.7117948],[-74.1618491,39.7118109],[-74.1618116,39.7118573],[-74.1617757,39.7119001],[-74.1617407,39.7119401],[-74.1617063,39.7119777],[-74.1616721,39.7120134],[-74.161638,39.7120472],[-74.161604,39.7120792],[-74.1615698,39.7121095],[-74.1615268,39.7121459],[-74.1614869,39.7121783],[-74.1614488,39.712208],[-74.1614119,39.7122353],[-74.1613755,39.7122606],[-74.1613397,39.7122839],[-74.1613043,39.7123055],[-74.1612691,39.7123252],[-74.1612086,39.7123573],[-74.1611602,39.7123817],[-74.1611155,39.7124025],[-74.1610943,39.7124117],[-74.1610737,39.7124201],[-74.1610529,39.7124281],[-74.1610327,39.7124353],[-74.1610127,39.7124419],[-74.1609931,39.7124478],[-74.1609738,39.712453],[-74.1609548,39.7124576],[-74.1609359,39.7124615],[-74.1609173,39.7124648],[-74.1608951,39.712468],[-74.1608719,39.7124707],[-74.1608476,39.7124727],[-74.1608221,39.7124743],[-74.1607955,39.7124753],[-74.1607676,39.7124757],[-74.1607382,39.7124756],[-74.1607068,39.712475],[-74.1606721,39.7124738],[-74.1606379,39.7124718],[-74.1606043,39.7124693],[-74.1605714,39.7124661],[-74.1605393,39.7124623],[-74.160508,39.7124579],[-74.1604775,39.7124528],[-74.1604479,39.7124472],[-74.1604193,39.712441],[-74.1603916,39.7124341],[-74.1603649,39.7124267],[-74.1603392,39.7124188],[-74.1603145,39.7124102],[-74.1602908,39.7124011],[-74.1602682,39.7123914],[-74.1602466,39.7123812],[-74.1602117,39.7123634],[-74.1601841,39.7123485],[-74.1601598,39.7123343],[-74.1601385,39.7123205],[-74.1601191,39.7123065],[-74.1601022,39.7122925],[-74.1600875,39.7122784],[-74.160075,39.7122641],[-74.1600602,39.7122447],[-74.1600494,39.7122283],[-74.1600414,39.7122132],[-74.1600385,39.7122061],[-74.1600362,39.7121991],[-74.160034,39.7121907],[-74.1600324,39.7121821],[-74.1600314,39.7121734],[-74.1600309,39.7121646],[-74.1600309,39.7121558],[-74.1600315,39.7121472],[-74.1600327,39.7121388],[-74.1600344,39.7121307],[-74.1600374,39.712121],[-74.1600412,39.712111],[-74.160046,39.7121011],[-74.1600517,39.7120913],[-74.160058,39.7120818],[-74.1600651,39.7120727],[-74.1600726,39.7120642],[-74.1600807,39.7120563],[-74.1600871,39.712051],[-74.1600943,39.7120457],[-74.1601025,39.7120404],[-74.1601117,39.7120351],[-74.1601321,39.712025],[-74.1601681,39.7120089],[-74.1601829,39.7120027],[-74.1601985,39.7119974],[-74.1602146,39.7119928],[-74.1602315,39.7119889],[-74.1602492,39.7119858],[-74.1602676,39.7119835],[-74.160287,39.7119819],[-74.1603073,39.711981],[-74.1603265,39.7119808],[-74.1603468,39.7119812],[-74.1603683,39.7119821],[-74.1603914,39.7119837],[-74.1604377,39.711988],[-74.1605285,39.7119981],[-74.1605659,39.712002],[-74.1606046,39.712005],[-74.1606389,39.7120066],[-74.1606587,39.7120069],[-74.1606775,39.7120066],[-74.1606955,39.7120058],[-74.1607128,39.7120044],[-74.1607295,39.7120025],[-74.1607455,39.712],[-74.160761,39.711997],[-74.1607759,39.7119934],[-74.1608082,39.7119846],[-74.1608346,39.7119771],[-74.1608583,39.7119698],[-74.1608799,39.7119625],[-74.1609003,39.7119551],[-74.1609192,39.7119474],[-74.1609367,39.7119396],[-74.1609529,39.7119314],[-74.1609704,39.7119217],[-74.1609879,39.711911],[-74.1610054,39.7118992],[-74.1610228,39.7118865],[-74.1610402,39.7118729],[-74.1610575,39.7118583],[-74.1610747,39.7118428],[-74.1610918,39.7118264],[-74.1611014,39.7118165],[-74.1611107,39.711806],[-74.1611197,39.7117951],[-74.1611285,39.7117837],[-74.1611369,39.7117717],[-74.1611452,39.711759],[-74.1611613,39.7117317],[-74.1611748,39.7117056],[-74.1611888,39.7116757],[-74.1612387,39.7115586],[-74.1612566,39.7115173],[-74.1612737,39.7114748],[-74.16129,39.7114309],[-74.1613055,39.7113854],[-74.1613203,39.7113384],[-74.1613345,39.7112895],[-74.1613481,39.7112386],[-74.1613613,39.7111854],[-74.1613694,39.711153],[-74.161389,39.7110798],[-74.1613974,39.711047],[-74.1614052,39.7110124],[-74.1614109,39.7109815],[-74.1614152,39.710948],[-74.1614165,39.7109321],[-74.1614171,39.7109167],[-74.1614171,39.7109018],[-74.1614165,39.7108872],[-74.1614153,39.710873],[-74.1614135,39.7108591],[-74.1614114,39.7108402],[-74.1614085,39.7107974],[-74.1614067,39.7107786],[-74.1614037,39.7107598],[-74.1613997,39.7107439],[-74.1613967,39.7107356],[-74.1613932,39.710728],[-74.1613893,39.7107211],[-74.1613849,39.710715],[-74.16138,39.7107094],[-74.1613746,39.7107046],[-74.1613686,39.7107004],[-74.1613621,39.7106968],[-74.1613527,39.7106928],[-74.1613422,39.710689],[-74.1613309,39.7106856],[-74.1613194,39.7106829],[-74.1613081,39.7106808],[-74.1612973,39.7106794],[-74.1612871,39.7106788],[-74.1612778,39.7106789],[-74.161271,39.7106797],[-74.1612641,39.7106814],[-74.161257,39.7106838],[-74.1612496,39.7106871],[-74.1612356,39.7106952],[-74.1612086,39.7107136],[-74.1611971,39.7107208],[-74.1611847,39.7107272],[-74.1611731,39.7107314],[-74.1611544,39.710736],[-74.1611344,39.7107397],[-74.1611133,39.7107424],[-74.1610918,39.7107441],[-74.1610785,39.7107441],[-74.1610646,39.7107428],[-74.16105,39.7107402],[-74.1610343,39.7107362],[-74.1610208,39.7107319],[-74.1610057,39.7107264],[-74.1609577,39.7107072],[-74.1609413,39.7107009],[-74.1609259,39.7106956],[-74.160912,39.7106917],[-74.1608993,39.7106889],[-74.1608873,39.7106872],[-74.1608758,39.7106865],[-74.1608649,39.7106868],[-74.1608544,39.7106882],[-74.1608437,39.7106909],[-74.1608324,39.7106949],[-74.1608205,39.7107002],[-74.1608102,39.7107055],[-74.1607987,39.7107121],[-74.1607611,39.7107356],[-74.1607472,39.7107439],[-74.1607334,39.7107512],[-74.1607209,39.7107569],[-74.1607078,39.7107614],[-74.1606954,39.7107642],[-74.1606833,39.7107653],[-74.1606775,39.7107652],[-74.1606716,39.7107647],[-74.1606574,39.7107624],[-74.1606422,39.7107589],[-74.1606266,39.7107542],[-74.1606113,39.7107486],[-74.1606053,39.7107459],[-74.1605993,39.7107426],[-74.1605933,39.7107386],[-74.1605872,39.710734],[-74.1605766,39.7107246],[-74.1605534,39.7107018],[-74.1605418,39.7106921],[-74.1605362,39.7106882],[-74.1605306,39.7106849],[-74.160525,39.7106821],[-74.1605193,39.7106798],[-74.1605079,39.7106762],[-74.1604958,39.7106731],[-74.1604834,39.7106706],[-74.160471,39.7106687],[-74.1604588,39.7106675],[-74.160447,39.7106669],[-74.1604357,39.710667],[-74.1604251,39.7106678],[-74.1604174,39.7106689],[-74.1604095,39.7106706],[-74.1603924,39.7106755],[-74.1603739,39.7106825],[-74.1603477,39.7106941],[-74.160338,39.7106988],[-74.1603285,39.7107045],[-74.160319,39.7107111],[-74.1603093,39.7107188],[-74.1602926,39.710734],[-74.1602562,39.7107704],[-74.160247,39.7107788],[-74.1602383,39.7107861],[-74.16023,39.7107922],[-74.1602218,39.7107976],[-74.1602136,39.7108023],[-74.1602053,39.7108063],[-74.1601867,39.7108139],[-74.1601676,39.7108208],[-74.1601482,39.7108269],[-74.1601288,39.710832],[-74.1601096,39.7108362],[-74.1600908,39.7108393],[-74.1600724,39.7108414],[-74.1600547,39.7108425],[-74.1600336,39.7108423],[-74.1600103,39.7108406],[-74.1599843,39.7108373],[-74.1599498,39.7108316],[-74.159938,39.7108293],[-74.1599259,39.7108265],[-74.1599001,39.710819],[-74.159873,39.7108095],[-74.1598193,39.7107889],[-74.1597966,39.7107806],[-74.1597724,39.7107728],[-74.1597504,39.7107672],[-74.1597177,39.7107604],[-74.1596845,39.7107545],[-74.1596509,39.7107495],[-74.1596171,39.7107453],[-74.1595831,39.7107421],[-74.1595492,39.7107397],[-74.1595155,39.7107383],[-74.1594821,39.7107379],[-74.1594493,39.7107383],[-74.159417,39.7107397],[-74.1593853,39.7107421],[-74.1593544,39.7107453],[-74.1593242,39.7107494],[-74.159295,39.7107545],[-74.1592666,39.7107604],[-74.1592392,39.7107672],[-74.1592108,39.7107753],[-74.1591837,39.7107837],[-74.1591579,39.7107925],[-74.1591337,39.7108015],[-74.159111,39.7108109],[-74.1590899,39.7108206],[-74.1590704,39.7108305],[-74.1590526,39.7108407],[-74.1590318,39.7108542],[-74.1590115,39.7108691],[-74.1589918,39.7108853],[-74.1589729,39.7109028],[-74.1589549,39.7109214],[-74.1589378,39.710941],[-74.1589219,39.7109615],[-74.1589072,39.7109826],[-74.1588939,39.7110044],[-74.158882,39.7110265],[-74.1588717,39.7110488],[-74.1588629,39.7110712],[-74.1588558,39.7110935],[-74.1588504,39.7111156],[-74.1588468,39.7111374],[-74.1588449,39.7111587],[-74.158843,39.7111884],[-74.158843,39.7112042],[-74.1588438,39.7112117],[-74.1588451,39.7112187],[-74.1588469,39.7112251],[-74.1588493,39.711231],[-74.1588553,39.7112411],[-74.158864,39.7112519],[-74.158875,39.711263],[-74.1588949,39.7112813],[-74.158904,39.711289],[-74.1589143,39.7112965],[-74.1589261,39.7113038],[-74.1589394,39.711311],[-74.1589653,39.7113232],[-74.1590266,39.7113493],[-74.1590409,39.711356],[-74.1590534,39.7113625],[-74.1590643,39.7113689],[-74.159074,39.7113753],[-74.1590827,39.7113819],[-74.1590904,39.7113887],[-74.1591062,39.7114051],[-74.159121,39.7114225],[-74.1591346,39.7114408],[-74.1591468,39.7114597],[-74.1591574,39.7114788],[-74.1591662,39.711498],[-74.1591732,39.7115171],[-74.1591783,39.7115357],[-74.1591806,39.7115478],[-74.1591821,39.7115606],[-74.1591829,39.711574],[-74.1591829,39.7115882],[-74.1591822,39.711603],[-74.1591808,39.7116186],[-74.1591786,39.7116352],[-74.1591756,39.7116531],[-74.1591735,39.7116623],[-74.1591704,39.7116719],[-74.1591664,39.7116819],[-74.1591613,39.7116925],[-74.1591504,39.711712],[-74.1591221,39.711758],[-74.1591154,39.7117702],[-74.1591101,39.7117813],[-74.1591055,39.7117929],[-74.1591023,39.7118038],[-74.1591004,39.7118143],[-74.1590998,39.7118245],[-74.1591005,39.7118395],[-74.1591024,39.7118551],[-74.1591054,39.7118708],[-74.1591096,39.7118865],[-74.1591148,39.7119019],[-74.1591209,39.7119167],[-74.159128,39.7119308],[-74.1591358,39.7119439],[-74.1591408,39.7119512],[-74.1591465,39.7119583],[-74.1591529,39.7119655],[-74.15916,39.7119726],[-74.1591762,39.7119867],[-74.1591954,39.712001],[-74.1592157,39.7120143],[-74.1592397,39.7120284],[-74.1592635,39.7120415],[-74.1593212,39.7120722],[-74.1593371,39.7120802],[-74.1593547,39.7120877],[-74.1593739,39.7120948],[-74.1593954,39.7121016],[-74.1594149,39.7121071],[-74.1594371,39.7121128],[-74.1595133,39.7121304],[-74.1595417,39.7121374],[-74.1595695,39.7121451],[-74.1595935,39.712153],[-74.1596064,39.7121578],[-74.1596183,39.7121629],[-74.1596295,39.7121681],[-74.1596399,39.7121736],[-74.1596496,39.7121794],[-74.1596586,39.7121855],[-74.159667,39.7121918],[-74.1596747,39.7121985],[-74.159688,39.7122113],[-74.1597005,39.7122242],[-74.1597118,39.7122372],[-74.1597221,39.71225],[-74.1597311,39.7122625],[-74.1597389,39.7122748],[-74.1597454,39.7122869],[-74.1597507,39.7122986],[-74.1597532,39.712306],[-74.1597549,39.712314],[-74.1597559,39.7123224],[-74.1597561,39.7123315],[-74.1597556,39.7123413],[-74.1597543,39.7123523],[-74.1597462,39.7123975],[-74.1597439,39.712417],[-74.1597436,39.7124275],[-74.1597442,39.7124372],[-74.1597457,39.7124462],[-74.1597481,39.7124547],[-74.1597551,39.712472],[-74.159764,39.7124898],[-74.1597745,39.7125076],[-74.1597863,39.7125247],[-74.1597934,39.7125334],[-74.1598014,39.7125417],[-74.1598104,39.7125496],[-74.1598204,39.712557],[-74.1598314,39.7125641],[-74.1598434,39.7125709],[-74.1598565,39.7125773],[-74.1598709,39.7125835],[-74.1598837,39.7125884],[-74.1598976,39.7125933],[-74.159929,39.7126028],[-74.1599611,39.7126114],[-74.1600464,39.7126326],[-74.1600708,39.7126393],[-74.1600923,39.7126458],[-74.1601153,39.7126538],[-74.1601359,39.7126621],[-74.1601545,39.7126709],[-74.1601711,39.7126802],[-74.1602233,39.712712],[-74.160239,39.712722],[-74.1602526,39.7127314],[-74.1602659,39.7127412],[-74.1602777,39.7127509],[-74.1602881,39.7127605],[-74.1602974,39.7127701],[-74.1603156,39.7127916],[-74.1603231,39.7128017],[-74.1603298,39.7128114],[-74.1603356,39.712821],[-74.1603406,39.7128302],[-74.1603447,39.7128393],[-74.1603479,39.7128481],[-74.1603506,39.7128572],[-74.1603527,39.7128667],[-74.1603542,39.7128763],[-74.1603552,39.712886],[-74.1603556,39.7128958],[-74.1603554,39.7129055],[-74.1603546,39.7129151],[-74.1603532,39.7129244],[-74.1603495,39.7129392],[-74.1603432,39.7129554],[-74.1603345,39.7129732],[-74.1603212,39.7129967],[-74.1603126,39.7130098],[-74.160302,39.7130227],[-74.1602894,39.7130355],[-74.1602746,39.7130484],[-74.1602585,39.7130608],[-74.1602395,39.713074],[-74.160219,39.7130872],[-74.160161,39.7131235],[-74.1601437,39.7131349],[-74.1601289,39.7131455],[-74.1601128,39.7131582],[-74.1600989,39.7131706],[-74.160087,39.713183],[-74.1600769,39.7131955],[-74.1600536,39.7132273],[-74.1600408,39.7132469],[-74.1600355,39.7132564],[-74.1600313,39.7132654],[-74.1600279,39.713274],[-74.1600255,39.7132823],[-74.1600234,39.7132936],[-74.1600223,39.7133055],[-74.1600223,39.713318],[-74.1600232,39.713331],[-74.1600252,39.7133446],[-74.1600282,39.7133584],[-74.1600322,39.7133724],[-74.1600371,39.7133862],[-74.1600407,39.7133942],[-74.1600454,39.7134023],[-74.1600513,39.7134104],[-74.1600584,39.7134188],[-74.1600663,39.7134271],[-74.1600758,39.7134361],[-74.1601162,39.7134708],[-74.1601325,39.7134861],[-74.1601405,39.7134947],[-74.1601473,39.713503],[-74.1601529,39.7135111],[-74.1601574,39.7135191],[-74.1601625,39.7135301],[-74.1601673,39.7135415],[-74.1601715,39.7135533],[-74.1601753,39.7135654],[-74.1601787,39.7135778],[-74.1601814,39.7135903],[-74.1601837,39.7136029],[-74.1601854,39.7136154],[-74.1601859,39.7136298],[-74.1601845,39.7136448],[-74.1601809,39.7136604],[-74.1601753,39.7136769],[-74.1601678,39.7136938],[-74.160158,39.7137124],[-74.1601467,39.7137316],[-74.1601137,39.7137851],[-74.1601045,39.7138015],[-74.1600971,39.7138162],[-74.16009,39.7138332],[-74.160085,39.7138492],[-74.160082,39.7138643],[-74.1600811,39.7138788],[-74.160082,39.7138906],[-74.1600847,39.7139031],[-74.1600893,39.7139163],[-74.1600958,39.7139306],[-74.1601027,39.7139433],[-74.1601113,39.7139575],[-74.1601432,39.7140056],[-74.1601545,39.7140237],[-74.1601644,39.7140418],[-74.1601713,39.7140579],[-74.1601742,39.7140668],[-74.1601761,39.7140753],[-74.1601771,39.7140835],[-74.1601773,39.7140913],[-74.1601765,39.7140989],[-74.1601748,39.7141062],[-74.1601722,39.7141133],[-74.1601687,39.7141201],[-74.160161,39.714132],[-74.1601524,39.7141434],[-74.1601433,39.7141539],[-74.1601338,39.7141631],[-74.1601215,39.7141731],[-74.1601081,39.7141822],[-74.1600937,39.7141904],[-74.1600784,39.7141976],[-74.1600624,39.7142038],[-74.1600457,39.7142088],[-74.1600332,39.7142134],[-74.1600218,39.7142194],[-74.1600116,39.7142266],[-74.160003,39.7142349],[-74.1599962,39.7142442],[-74.1599912,39.7142541],[-74.1599882,39.7142645],[-74.1599873,39.7142751],[-74.1599885,39.7142857],[-74.1599917,39.714296],[-74.159997,39.7143059],[-74.1600041,39.714315],[-74.1638563,39.7177831],[-74.1639206,39.7178315],[-74.1639864,39.7178787],[-74.1640537,39.7179247],[-74.1641223,39.7179695],[-74.1641924,39.718013],[-74.1642637,39.7180552],[-74.1643363,39.7180961],[-74.1644102,39.7181356],[-74.1644853,39.7181738],[-74.1645616,39.7182105],[-74.1646389,39.7182459],[-74.1647174,39.7182799],[-74.1647968,39.7183124],[-74.1648773,39.7183434],[-74.1649587,39.7183729],[-74.165041,39.718401],[-74.1651241,39.7184275],[-74.165208,39.7184525],[-74.1652927,39.7184759],[-74.1653781,39.7184978],[-74.1654641,39.7185181],[-74.1655508,39.7185369],[-74.165638,39.718554],[-74.1657257,39.7185696],[-74.1658138,39.7185835],[-74.1680703,39.7188129],[-74.1682479,39.7188231],[-74.1698284,39.718914],[-74.1714316,39.7190061],[-74.1725059,39.7190284],[-74.1728917,39.7190364],[-74.1732239,39.7190553],[-74.1743517,39.7191192],[-74.1743576,39.7191196],[-74.1750376,39.7191577],[-74.1753363,39.7191745],[-74.1756547,39.7192245],[-74.1761847,39.719308],[-74.1764673,39.7193765],[-74.1766451,39.7194197],[-74.1771685,39.7195467],[-74.1781007,39.7199165],[-74.1787719,39.7202895],[-74.1790492,39.7204436],[-74.1797263,39.7209176],[-74.1799158,39.7211283],[-74.1799628,39.7211805],[-74.1801734,39.7215352],[-74.1802912,39.7217715],[-74.1804266,39.7218768],[-74.1806298,39.7219954],[-74.1809518,39.7221274],[-74.180999,39.7221429],[-74.1812232,39.7222162],[-74.1814775,39.7222993],[-74.1817038,39.7223847],[-74.182003,39.7224975],[-74.1820816,39.7225287],[-74.1823791,39.722647],[-74.1827511,39.7227948],[-74.1828336,39.7228276],[-74.1831047,39.7229463],[-74.1831499,39.7229585],[-74.1835795,39.7230742],[-74.1835966,39.7230788],[-74.1836914,39.7230924],[-74.1840123,39.7231383],[-74.1841566,39.723159],[-74.1847507,39.7232262],[-74.1852996,39.7232448],[-74.1855911,39.7232547],[-74.1861176,39.723243],[-74.1865594,39.7231918],[-74.1867803,39.723153],[-74.1870016,39.7230356],[-74.187223,39.7229051],[-74.1875015,39.7228387],[-74.1876259,39.7227936],[-74.1877728,39.7227688],[-74.1879141,39.722745],[-74.187962,39.7227369],[-74.1883817,39.7227524],[-74.1888291,39.7228329],[-74.189387,39.7229336],[-74.1896839,39.7229613],[-74.1898584,39.7230158],[-74.1899013,39.723037],[-74.1900502,39.7231107],[-74.1901895,39.723219],[-74.1903112,39.7233678],[-74.1904501,39.7235638],[-74.1905803,39.7237463],[-74.1906847,39.7238613],[-74.1908064,39.7239898],[-74.190937,39.7240914],[-74.1910678,39.7241389],[-74.1912163,39.7241663],[-74.1914085,39.7241533],[-74.1915574,39.724066],[-74.1916365,39.7239785],[-74.191698,39.723891],[-74.1917598,39.7237562],[-74.1918044,39.7235404],[-74.1918139,39.7233651],[-74.191797,39.7232436],[-74.1917367,39.723041],[-74.1916672,39.7229599],[-74.1915893,39.722791],[-74.1915553,39.722575],[-74.1915826,39.7223457],[-74.19168,39.7220424],[-74.1917088,39.7219604],[-74.1917726,39.7218692],[-74.1917823,39.7218592],[-74.1918363,39.721804],[-74.1919084,39.7217596],[-74.1919762,39.7217293],[-74.1920659,39.7217128],[-74.1921581,39.7217101],[-74.1922493,39.7217268],[-74.1923693,39.721776],[-74.1924705,39.7218383],[-74.1925543,39.721903],[-74.1926643,39.7220185],[-74.1927803,39.72216],[-74.1929021,39.7222817],[-74.1930327,39.7223833],[-74.1931723,39.7224309],[-74.1934168,39.7224585],[-74.1935916,39.7224387],[-74.1938016,39.7223718],[-74.1939854,39.7223048],[-74.1941429,39.7222513],[-74.194341,39.7222283],[-74.1943701,39.7222249],[-74.194571,39.7222322],[-74.1946515,39.7222377],[-74.194794,39.7222513],[-74.19486,39.7222563],[-74.1949293,39.7222516],[-74.1949985,39.7222421],[-74.1951128,39.7222201],[-74.195279,39.7221666],[-74.1954366,39.7220995],[-74.1955242,39.7220458],[-74.1956951,39.7219694],[-74.1957802,39.721938],[-74.1958557,39.7219236],[-74.1959354,39.7219186],[-74.1961538,39.7219192],[-74.1963808,39.7219333],[-74.1966429,39.7219475],[-74.1966973,39.7219429],[-74.1967445,39.7219333],[-74.1968076,39.7219164],[-74.1968528,39.7218941],[-74.1969668,39.7217864],[-74.1971337,39.7215845],[-74.1972832,39.7213622],[-74.1973128,39.7213219],[-74.1974414,39.7211467],[-74.1975643,39.7210121],[-74.1977222,39.7208709],[-74.1977578,39.7208304],[-74.1978241,39.7207819],[-74.1978903,39.7207505],[-74.1979412,39.7207432],[-74.1980068,39.7207362],[-74.1981106,39.7207462],[-74.1981856,39.7207709],[-74.1982519,39.7208049],[-74.1982989,39.7208454],[-74.1983459,39.7208975],[-74.198377,39.7209535],[-74.1983988,39.7210361],[-74.1984026,39.7211088],[-74.1983579,39.7213448],[-74.1982695,39.7215807],[-74.1981461,39.7218165],[-74.1981108,39.7219243],[-74.1981014,39.7220592],[-74.1981093,39.72211],[-74.1981161,39.7221366],[-74.198164,39.7221899],[-74.1982143,39.7222215],[-74.198319,39.7222487],[-74.1986159,39.7222765],[-74.1990003,39.7222842],[-74.199472,39.7223124],[-74.1999349,39.7223271],[-74.2000659,39.7223545],[-74.2001617,39.7224086],[-74.2001747,39.7224243],[-74.2002287,39.722383],[-74.2002828,39.7223259],[-74.20031,39.7222713],[-74.2003237,39.7222193],[-74.2003105,39.7221516],[-74.2002638,39.722063],[-74.2002371,39.7219822],[-74.200224,39.7218989],[-74.200231,39.721852],[-74.2002547,39.7218052],[-74.2003224,39.7217481],[-74.2004035,39.7216937],[-74.2005116,39.7216393],[-74.2006096,39.7215953],[-74.2006873,39.7215616],[-74.2007684,39.7215202],[-74.2008096,39.7214866],[-74.2008225,39.7214761],[-74.200853,39.7214397],[-74.2008769,39.7213591],[-74.2008941,39.7212732],[-74.2008879,39.7211613],[-74.2008616,39.7210076],[-74.2008319,39.7208618],[-74.2008153,39.7207941],[-74.200792,39.7207341],[-74.2007618,39.7207028],[-74.2007012,39.7206792],[-74.2005698,39.720658],[-74.2004181,39.7206681],[-74.2001754,39.7206727],[-74.2000001,39.720667],[-74.1999361,39.7206512],[-74.1998992,39.7206277],[-74.1998724,39.7205729],[-74.1998628,39.720461],[-74.1998534,39.72031],[-74.1998267,39.7202448],[-74.1997831,39.7201901],[-74.1997025,39.7201222],[-74.1995949,39.7200542],[-74.1994873,39.7199993],[-74.199373,39.7199235],[-74.199336,39.7198895],[-74.199316,39.7198556],[-74.1993095,39.719788],[-74.1993334,39.7197151],[-74.1994047,39.7196112],[-74.1994962,39.7194865],[-74.1995405,39.7193929],[-74.1995948,39.7193045],[-74.1996255,39.7192265],[-74.1996393,39.719151],[-74.1996328,39.7190833],[-74.1995895,39.7189817],[-74.1995561,39.7189009],[-74.1995192,39.7188462],[-74.1994756,39.7188044],[-74.1994419,39.718787],[-74.1994049,39.7187782],[-74.1993241,39.7187676],[-74.1992854,39.7187662],[-74.1992361,39.7187756],[-74.1991797,39.7187917],[-74.1990878,39.7188268],[-74.199044,39.7188321],[-74.1989968,39.7188344],[-74.1988957,39.7188263],[-74.1988329,39.7188126],[-74.1988031,39.7187989],[-74.1987794,39.7187807],[-74.1987773,39.7187796],[-74.1987628,39.7187485],[-74.1987436,39.7187023],[-74.1987254,39.7186626],[-74.1987118,39.7186231],[-74.1986925,39.7185457],[-74.198681,39.7184728],[-74.1986794,39.7183939],[-74.1986934,39.7183317],[-74.1987212,39.718268],[-74.1987707,39.7181756],[-74.1988419,39.7180771],[-74.1988923,39.718015],[-74.1989536,39.7179348],[-74.1990247,39.7178454],[-74.1990701,39.7177894],[-74.1991115,39.71775],[-74.199151,39.7177213],[-74.1991904,39.7177002],[-74.1992395,39.7176912],[-74.1992808,39.7176867],[-74.1993221,39.7176899],[-74.1993731,39.7177052],[-74.19943,39.7177342],[-74.199475,39.7177631],[-74.1995339,39.7177951],[-74.199577,39.717815],[-74.1996113,39.7178317],[-74.1996447,39.7178394],[-74.1996918,39.7178441],[-74.1997194,39.7178411],[-74.1997508,39.7178367],[-74.1998,39.7178201],[-74.1998591,39.7177945],[-74.1999044,39.7177688],[-74.1999694,39.7177264],[-74.2000168,39.7176886],[-74.200073,39.7176372],[-74.2001203,39.7176009],[-74.2001311,39.7175931],[-74.2001598,39.7175721],[-74.2002091,39.7175268],[-74.2002387,39.7174904],[-74.2002605,39.7174495],[-74.2002764,39.7174025],[-74.2002943,39.7173479],[-74.2003082,39.717316],[-74.20033,39.7172797],[-74.2003517,39.7172616],[-74.200395,39.7172404],[-74.2004817,39.7172072],[-74.2005505,39.7171756],[-74.200587,39.7171544],[-74.2006264,39.7171272],[-74.2006718,39.7170894],[-74.200735,39.7170212],[-74.2007655,39.716997],[-74.2007875,39.7169862],[-74.2007931,39.7169834],[-74.2008442,39.7169684],[-74.2008915,39.7169579],[-74.2009347,39.7169504],[-74.200974,39.7169414],[-74.200993,39.7169329],[-74.2010075,39.7169263],[-74.2010292,39.7169067],[-74.2010509,39.7168855],[-74.2010629,39.7168536],[-74.2010709,39.7168081],[-74.2010791,39.7167307],[-74.2010854,39.7166336],[-74.2010799,39.7165547],[-74.2010821,39.7165016],[-74.2010941,39.716447],[-74.201107,39.716403],[-74.2011229,39.7163742],[-74.2011505,39.716347],[-74.2011841,39.7163167],[-74.2012451,39.7162895],[-74.2013514,39.7162428],[-74.2014479,39.7162081],[-74.2015069,39.7161946],[-74.2015556,39.716189],[-74.2015718,39.7161872],[-74.2016209,39.7161858],[-74.201668,39.716192],[-74.2017308,39.7162134],[-74.2017837,39.7162439],[-74.2018425,39.716285],[-74.2018827,39.7163185],[-74.2019238,39.716349],[-74.2019748,39.7163673],[-74.2020572,39.7163857],[-74.2021496,39.7163905],[-74.2022321,39.7163862],[-74.2023069,39.7163742],[-74.2023777,39.7163531],[-74.2024387,39.7163305],[-74.202485,39.7163125],[-74.202544,39.7162959],[-74.2026108,39.7162885],[-74.202656,39.7162901],[-74.202711,39.7163055],[-74.2027757,39.716339],[-74.2028345,39.7163741],[-74.2028796,39.7164015],[-74.2029168,39.7164198],[-74.20296,39.7164336],[-74.203017,39.7164428],[-74.2030681,39.7164384],[-74.2031113,39.7164279],[-74.2031566,39.7164068],[-74.2031989,39.7163886],[-74.203256,39.7163751],[-74.203313,39.7163631],[-74.2033858,39.7163573],[-74.2034477,39.7163544],[-74.2035283,39.71635],[-74.2036147,39.7163457],[-74.20366,39.7163397],[-74.203719,39.7163308],[-74.203778,39.7163112],[-74.203789,39.7163063],[-74.2038253,39.7162901],[-74.2038558,39.7162704],[-74.2038893,39.7162493],[-74.2039484,39.716213],[-74.2039937,39.7161858],[-74.2040469,39.7161556],[-74.2040699,39.7161431],[-74.2040942,39.7161299],[-74.2041611,39.7161012],[-74.2042378,39.7160787],[-74.2043047,39.7160606],[-74.2043736,39.7160456],[-74.2044837,39.7160231],[-74.2045781,39.7160067],[-74.2046882,39.7159963],[-74.2048455,39.7159861],[-74.2048965,39.7159822],[-74.2049388,39.7159779],[-74.2049839,39.7159704],[-74.2050253,39.715963],[-74.2050318,39.7159618],[-74.2050586,39.7159543],[-74.2050883,39.7159446],[-74.2051179,39.7159305],[-74.2051561,39.7159088],[-74.20519,39.7158828],[-74.2052409,39.7158394],[-74.2053024,39.71577],[-74.2053519,39.7157244],[-74.2054014,39.7156788],[-74.2054722,39.7156137],[-74.2055443,39.7155464],[-74.2055761,39.7155226],[-74.2056185,39.7154966],[-74.2056722,39.7154586],[-74.2057301,39.7154164],[-74.2058418,39.7153296],[-74.2059054,39.7152797],[-74.2059347,39.7152589],[-74.2059527,39.7152461],[-74.2059824,39.7152255],[-74.206015,39.7151973],[-74.2060432,39.7151647],[-74.2060673,39.7151376],[-74.20609,39.7151115],[-74.2061183,39.7150757],[-74.2061593,39.7150366],[-74.2061876,39.7150095],[-74.2062201,39.7149824],[-74.2062569,39.7149574],[-74.2063063,39.7149315],[-74.2063599,39.7149055],[-74.2064347,39.7148741],[-74.2064968,39.7148558],[-74.2065553,39.7148418],[-74.2066089,39.7148299],[-74.2066498,39.7148213],[-74.2066907,39.7148084],[-74.2067218,39.7147932],[-74.2067556,39.7147857],[-74.2067838,39.7147814],[-74.206812,39.7147837],[-74.2068415,39.7147892],[-74.2068626,39.7147969],[-74.2068908,39.7148013],[-74.2069077,39.7147992],[-74.206926,39.7147916],[-74.2069472,39.7147764],[-74.2069671,39.7147536],[-74.2069841,39.7147167],[-74.2070083,39.7146667],[-74.2070268,39.7146101],[-74.2070367,39.7145762],[-74.2070454,39.714546],[-74.2070654,39.7144905],[-74.2070733,39.7144579],[-74.2070847,39.7144275],[-74.2070988,39.7144025],[-74.2071144,39.714384],[-74.2071385,39.7143689],[-74.2071596,39.7143624],[-74.2071948,39.7143592],[-74.2072216,39.7143549],[-74.2072498,39.7143485],[-74.2072781,39.7143333],[-74.2072965,39.7143192],[-74.2073219,39.7142997],[-74.2073516,39.714278],[-74.2073798,39.7142618],[-74.2074066,39.7142477],[-74.2074419,39.7142391],[-74.2074771,39.7142359],[-74.2075096,39.7142283],[-74.207535,39.7142208],[-74.2075604,39.7142046],[-74.2075794,39.7141905],[-74.2076134,39.714159],[-74.2076516,39.7141275],[-74.2077039,39.7140896],[-74.2077547,39.7140538],[-74.207807,39.7140159],[-74.207855,39.7139823],[-74.2079158,39.7139389],[-74.2079695,39.713902],[-74.2080317,39.713863],[-74.2080748,39.7138305],[-74.2081271,39.7137903],[-74.2081751,39.7137524],[-74.2082345,39.713709],[-74.2082952,39.71367],[-74.2083546,39.7136256],[-74.2084149,39.7135873],[-74.2084177,39.7135898],[-74.211289,39.716184],[-74.224407,39.7229615],[-74.2381279,39.7311824],[-74.2383297,39.7312761],[-74.2484494,39.737182],[-74.2560626,39.7418916],[-74.2589489,39.7425147],[-74.267751,39.744651],[-74.2876004,39.7494998],[-74.2950579,39.7512993],[-74.314513,39.7560707],[-74.33038,39.7599249],[-74.3627539,39.7678809],[-74.3903741,39.7744986],[-74.4169015,39.822692],[-74.3921424,39.824437],[-74.3436173,39.8281253],[-74.3434147,39.8281407],[-74.3433573,39.8281446],[-74.3432257,39.8279223],[-74.3430174,39.8275652],[-74.3427333,39.8270762],[-74.3426259,39.8268732],[-74.3424412,39.826575],[-74.342278,39.8262983],[-74.3421794,39.8261266],[-74.3419951,39.825742],[-74.3419292,39.8256221],[-74.3415982,39.8250672],[-74.3413882,39.8247528],[-74.3412528,39.824531],[-74.3412097,39.8244451],[-74.3411235,39.8242758],[-74.3410159,39.8240469],[-74.3409021,39.8237846],[-74.3407576,39.8234817],[-74.3406498,39.8232885],[-74.3404683,39.8229427],[-74.3402529,39.8225087],[-74.3398777,39.821736],[-74.33949,39.8209466],[-74.3393886,39.8206938],[-74.3393087,39.8205293],[-74.3392287,39.8203671],[-74.3391757,39.8202815],[-74.3391351,39.8202128],[-74.3390502,39.8200382],[-74.3389912,39.8199152],[-74.3389173,39.8197921],[-74.3388212,39.8196375],[-74.3387141,39.8194687],[-74.3386218,39.8192655],[-74.3385406,39.8190938],[-74.3384446,39.8189049],[-74.338356,39.8187303],[-74.3382785,39.8185843],[-74.3379793,39.8180606],[-74.3377578,39.8176456],[-74.3376101,39.8173851],[-74.3373071,39.8169014],[-74.3371445,39.8166524],[-74.3370485,39.8164806],[-74.3369857,39.8163633],[-74.3369009,39.8161544],[-74.3368124,39.8159684],[-74.3367533,39.8158625],[-74.3366572,39.8157194],[-74.3365168,39.8154875],[-74.3364097,39.8152958],[-74.3363174,39.8151412],[-74.3362472,39.8150324],[-74.3361548,39.8149065],[-74.3360623,39.8147891],[-74.3360069,39.8147061],[-74.3359737,39.8146231],[-74.3359517,39.8145344],[-74.3359482,39.81444],[-74.3359596,39.8143256],[-74.3360085,39.8140426],[-74.3360573,39.8137967],[-74.3361023,39.8135909],[-74.3361622,39.813365],[-74.336207,39.8132192],[-74.3363114,39.8129563],[-74.3364607,39.8125704],[-74.336569,39.8122502],[-74.336666,39.8119844],[-74.3368338,39.8115986],[-74.3370613,39.8110584],[-74.3372143,39.8106468],[-74.3372927,39.8104381],[-74.337345,39.8102752],[-74.3373823,39.8101551],[-74.3374235,39.8100065],[-74.3374461,39.8098606],[-74.3374611,39.809772],[-74.3374724,39.8096948],[-74.3374726,39.8096033],[-74.3374728,39.8095204],[-74.3374656,39.809426],[-74.337451,39.8093316],[-74.3374327,39.8092458],[-74.337418,39.80918],[-74.3373959,39.8091141],[-74.3373701,39.8090598],[-74.3373406,39.8089968],[-74.3372888,39.8089138],[-74.3371448,39.8086848],[-74.3368935,39.8082984],[-74.336683,39.8079521],[-74.3363617,39.8074054],[-74.3361918,39.807122],[-74.335948,39.8067127],[-74.3358926,39.8066068],[-74.3357487,39.8063549],[-74.335612,39.8061374],[-74.3354346,39.8058683],[-74.3352683,39.8056536],[-74.3350132,39.8053301],[-74.3344366,39.8045828],[-74.333956,39.803993],[-74.3337268,39.8036924],[-74.3335458,39.803429],[-74.3333867,39.8032486],[-74.3332462,39.8030854],[-74.3329615,39.8027647],[-74.3328136,39.8026158],[-74.3327063,39.802507],[-74.3325547,39.8023208],[-74.3324439,39.8021691],[-74.3323107,39.8020231],[-74.3320852,39.8017539],[-74.3319633,39.8015764],[-74.3317898,39.8012759],[-74.3315792,39.8009782],[-74.3312799,39.8005344],[-74.3307366,39.7998501],[-74.3304557,39.7994694],[-74.3301602,39.7990171],[-74.3300125,39.7987595],[-74.3297391,39.7984073],[-74.3292992,39.7978719],[-74.328937,39.797408],[-74.328745,39.7971046],[-74.3286636,39.7969958],[-74.3285712,39.7968813],[-74.3284493,39.7967381],[-74.328368,39.796615],[-74.3281501,39.7962715],[-74.3279434,39.7959137],[-74.3277662,39.7956246],[-74.3270864,39.7946684],[-74.3264804,39.7938525],[-74.3260853,39.7932513],[-74.3257196,39.7927331],[-74.3255718,39.7925127],[-74.3254832,39.7923896],[-74.3253871,39.7922693],[-74.325254,39.7921261],[-74.3249656,39.7918054],[-74.3245369,39.7912957],[-74.3241968,39.7909033],[-74.3239677,39.7906342],[-74.3236536,39.7902305],[-74.3231103,39.7895747],[-74.3228368,39.7892454],[-74.3225966,39.7889505],[-74.3224192,39.7887386],[-74.3222745,39.7885801],[-74.3220554,39.7883712],[-74.3218745,39.788177],[-74.3217635,39.788056],[-74.3216485,39.7879191],[-74.3216104,39.7878896],[-74.3151325,39.7757426],[-74.3061142,39.7735759],[-74.3050537,39.7732801],[-74.3048101,39.7732261],[-74.304804,39.7732423],[-74.2930303,39.7706127],[-74.2930279,39.7706136],[-74.2929566,39.7706395],[-74.2928806,39.7706645],[-74.2927785,39.7706937],[-74.2925237,39.7707607],[-74.2923088,39.7708106],[-74.292089,39.7708605],[-74.2918186,39.7709019],[-74.291515,39.7709479],[-74.2912796,39.7709871],[-74.2910514,39.7710225],[-74.2908456,39.7710436],[-74.2906893,39.7710535],[-74.2905426,39.7710765],[-74.290213,39.7711299],[-74.2895974,39.7712154],[-74.2892467,39.7712581],[-74.2888352,39.7712764],[-74.2887043,39.7712622],[-74.2883435,39.7712597],[-74.2876527,39.7712831],[-74.2873395,39.7712988],[-74.2870981,39.7713054],[-74.2867584,39.7713238],[-74.2863602,39.7713264],[-74.2861949,39.77132],[-74.2859842,39.7712905],[-74.2858104,39.7712761],[-74.2856871,39.7712734],[-74.2853413,39.7713142],[-74.285144,39.771311],[-74.2848218,39.7713146],[-74.2844652,39.7713223],[-74.2842172,39.7713331],[-74.284047,39.7713523],[-74.2838333,39.7713775],[-74.2833631,39.7714432],[-74.2830209,39.7714975],[-74.2826998,39.7715448],[-74.2824795,39.7715603],[-74.2822689,39.7715738],[-74.2821663,39.7715718],[-74.2820638,39.7715627],[-74.2818949,39.7715508],[-74.2816174,39.7715489],[-74.2814182,39.7715853],[-74.2811929,39.7716603],[-74.2809762,39.7716743],[-74.2808344,39.7716829],[-74.2806943,39.7717231],[-74.2805289,39.7717568],[-74.2803346,39.7717722],[-74.2799464,39.77184],[-74.2794877,39.7719071],[-74.2792166,39.7719531],[-74.2786167,39.7720358],[-74.27838,39.7720758],[-74.2782152,39.7721151],[-74.2780696,39.7721618],[-74.2777533,39.7722017],[-74.2775096,39.7721877],[-74.2771568,39.7721568],[-74.2768191,39.7721147],[-74.2764958,39.7720866],[-74.2760167,39.7720806],[-74.2757429,39.7720666],[-74.2755643,39.7720602],[-74.2754152,39.7720701],[-74.2751387,39.7721287],[-74.2746212,39.7722739],[-74.2739347,39.7724262],[-74.2734365,39.7725663],[-74.2726162,39.7728496],[-74.2717993,39.7731027],[-74.2717227,39.7731305],[-74.2716036,39.7731526],[-74.2714442,39.7731771],[-74.2712036,39.7732027],[-74.2709276,39.7732326],[-74.2706001,39.773258],[-74.2703297,39.7732761],[-74.2700529,39.7732941],[-74.2696507,39.773307],[-74.269398,39.7733369],[-74.2691943,39.7733719],[-74.2687056,39.7734864],[-74.2682765,39.7735935],[-74.2679971,39.7736513],[-74.2676001,39.7737815],[-74.2673279,39.7738673],[-74.2669769,39.7739367],[-74.2666461,39.773995],[-74.2660696,39.7741509],[-74.2658747,39.774195],[-74.265689,39.7742451],[-74.2653896,39.7742925],[-74.2651007,39.7743871],[-74.264785,39.774499],[-74.2641977,39.774651],[-74.2636844,39.774832],[-74.2633214,39.7749513],[-74.263053,39.7750302],[-74.2623264,39.7751379],[-74.2620603,39.7751813],[-74.2617329,39.7752485],[-74.2612844,39.7752939],[-74.2603799,39.7753649],[-74.2597027,39.7754562],[-74.258886,39.7755737],[-74.2582613,39.7756899],[-74.2579241,39.7757918],[-74.2578082,39.775833],[-74.2577009,39.7758435],[-74.2575915,39.77584],[-74.2574542,39.7758405],[-74.2572534,39.7758931],[-74.2570622,39.7759721],[-74.2569258,39.7760099],[-74.2567447,39.7760267],[-74.2565574,39.7760225],[-74.2557593,39.7761034],[-74.2542873,39.7762261],[-74.2540197,39.7762461],[-74.2533678,39.7762316],[-74.2524753,39.7761828],[-74.2516583,39.7761079],[-74.2512207,39.7760619],[-74.2505934,39.7759686],[-74.2501339,39.7759244],[-74.2492267,39.7758905],[-74.2487111,39.7758438],[-74.2430667,39.7749089],[-74.241893,39.7748524],[-74.2417383,39.7748614],[-74.2415911,39.7748558],[-74.2413984,39.7748455],[-74.2412178,39.7748358],[-74.2410232,39.7748425],[-74.240798,39.7748678],[-74.2404209,39.7749258],[-74.2400276,39.7749801],[-74.2398307,39.7749984],[-74.2393746,39.7750223],[-74.2390276,39.7750589],[-74.2387135,39.7750912],[-74.2383797,39.7751425],[-74.2379574,39.7752409],[-74.2375206,39.7753577],[-74.2371716,39.7754612],[-74.2367225,39.7756363],[-74.23612,39.7759208],[-74.2356279,39.776131],[-74.2349285,39.7764213],[-74.2346147,39.7765498],[-74.2338928,39.7772055],[-74.2335454,39.7777135],[-74.2331558,39.7781711],[-74.2255069,39.777204],[-74.2233204,39.7769274],[-74.2220047,39.776761],[-74.2198068,39.7764829],[-74.20961,39.7719418],[-74.2096068,39.7719367],[-74.2095707,39.7719036],[-74.2095132,39.7718653],[-74.2093736,39.7718053],[-74.2093106,39.7717793],[-74.2091568,39.7717159],[-74.2090763,39.7716624],[-74.2090387,39.7716267],[-74.2090322,39.7715898],[-74.2090356,39.7715581],[-74.2090424,39.7715124],[-74.2090509,39.7714693],[-74.2090526,39.7714413],[-74.2090462,39.7714083],[-74.2090298,39.7713892],[-74.2090117,39.7713764],[-74.2089673,39.7713674],[-74.208913,39.7713635],[-74.208867,39.771357],[-74.2088226,39.7713455],[-74.2087487,39.7713009],[-74.2086814,39.7712702],[-74.208614,39.7712472],[-74.2085384,39.7712279],[-74.2084858,39.7712126],[-74.2084151,39.7711934],[-74.2083609,39.7711742],[-74.2083099,39.7711524],[-74.2082755,39.771127],[-74.2082394,39.7710989],[-74.2081967,39.7710671],[-74.2081623,39.7710314],[-74.2081165,39.7709754],[-74.2080838,39.770936],[-74.2080428,39.7708876],[-74.2080035,39.7708418],[-74.2079724,39.7708011],[-74.2079299,39.7707515],[-74.2078939,39.7706993],[-74.2078743,39.7706573],[-74.2078565,39.7705722],[-74.2078404,39.7705049],[-74.2078126,39.7704426],[-74.2077898,39.7704069],[-74.2077537,39.7703624],[-74.2077112,39.7703166],[-74.2076685,39.7702758],[-74.2076259,39.7702402],[-74.2075881,39.7702159],[-74.2075274,39.7701917],[-74.2074797,39.7701738],[-74.207432,39.7701609],[-74.2073828,39.7701418],[-74.2073368,39.7701213],[-74.2072973,39.770106],[-74.2072382,39.7700932],[-74.2071987,39.7700804],[-74.2071708,39.77006],[-74.2071528,39.770032],[-74.2071398,39.770004],[-74.2071317,39.7699684],[-74.2071203,39.7699506],[-74.2071006,39.7699353],[-74.2070628,39.7699111],[-74.2070087,39.7698767],[-74.2069201,39.7698117],[-74.2068265,39.7697518],[-74.2067707,39.769711],[-74.2067412,39.7696944],[-74.2067232,39.7696804],[-74.2066986,39.7696537],[-74.2066708,39.769613],[-74.2066495,39.769585],[-74.2066348,39.7695697],[-74.2065921,39.7695493],[-74.2065182,39.7695161],[-74.2064656,39.7694893],[-74.2064262,39.7694625],[-74.2063819,39.7694281],[-74.2063475,39.7693988],[-74.2063163,39.7693784],[-74.2062194,39.7693324],[-74.2061323,39.7692967],[-74.2060223,39.769243],[-74.2058695,39.7691842],[-74.2057512,39.7691433],[-74.2056132,39.7690883],[-74.205426,39.7690066],[-74.2053422,39.768967],[-74.2052748,39.7689376],[-74.2052305,39.7689235],[-74.2051877,39.7689145],[-74.2051433,39.7689043],[-74.2050858,39.7688978],[-74.2050282,39.7688824],[-74.2049608,39.768867],[-74.204923,39.7688516],[-74.2049001,39.7688389],[-74.2048788,39.7688198],[-74.2048624,39.7687918],[-74.2048493,39.7687702],[-74.2048264,39.7687498],[-74.2048083,39.7687371],[-74.2047558,39.7687026],[-74.2047033,39.7686733],[-74.2046409,39.7686376],[-74.20459,39.7686032],[-74.2045539,39.7685764],[-74.2045376,39.7685573],[-74.2045196,39.768523],[-74.2045066,39.768481],[-74.2044821,39.7684378],[-74.2044527,39.7683984],[-74.2044117,39.7683601],[-74.2043855,39.7683423],[-74.2043363,39.7682977],[-74.2042659,39.7682125],[-74.2042136,39.7681298],[-74.204148,39.7680585],[-74.2041071,39.7680101],[-74.2040481,39.7679452],[-74.203999,39.7678791],[-74.2039597,39.7678383],[-74.2039368,39.7678154],[-74.2039072,39.7677975],[-74.2038777,39.767781],[-74.2038514,39.7677631],[-74.2038416,39.7677555],[-74.203822,39.7677313],[-74.203799,39.7677008],[-74.2037729,39.7676702],[-74.2037417,39.7676422],[-74.2036974,39.7676154],[-74.2036564,39.7675899],[-74.2036383,39.7675734],[-74.2036122,39.7675377],[-74.2035663,39.7674805],[-74.2034943,39.7673952],[-74.2034222,39.7673176],[-74.2033239,39.7672144],[-74.203237,39.767138],[-74.2031698,39.7670845],[-74.203137,39.7670628],[-74.2031074,39.7670475],[-74.2030449,39.767027],[-74.2028872,39.7669758],[-74.202787,39.7669388],[-74.2026769,39.7669042],[-74.2026078,39.7668875],[-74.2025716,39.7668836],[-74.2025535,39.7668835],[-74.2025255,39.7668911],[-74.2024794,39.7669062],[-74.20243,39.766915],[-74.2023625,39.7669123],[-74.2023,39.766907],[-74.2022474,39.7668967],[-74.2022145,39.7668865],[-74.2021817,39.7668661],[-74.2021604,39.7668482],[-74.2021424,39.7668228],[-74.202113,39.7667669],[-74.2020852,39.7667236],[-74.2020493,39.7666562],[-74.2020281,39.7666079],[-74.2020136,39.7665507],[-74.2019973,39.7665011],[-74.2019876,39.7664656],[-74.2019746,39.7664325],[-74.2019566,39.7664121],[-74.2019336,39.7663829],[-74.2019124,39.7663612],[-74.2018714,39.7663294],[-74.2018287,39.7662975],[-74.2017778,39.7662618],[-74.2017483,39.7662414],[-74.2016974,39.7662184],[-74.2016448,39.766198],[-74.2016005,39.7661725],[-74.2015579,39.7661406],[-74.2014824,39.766082],[-74.2014103,39.7660247],[-74.2013677,39.7659776],[-74.2013365,39.7659534],[-74.2012873,39.7659304],[-74.2011122,39.7658783],[-74.2010259,39.7658561],[-74.2009027,39.7658227],[-74.2007695,39.7657946],[-74.2005624,39.7657508],[-74.2016159,39.7643024],[-74.2015739,39.7642885],[-74.2014518,39.7642396],[-74.2012076,39.764136],[-74.2010698,39.764074],[-74.2009007,39.763998],[-74.200209,39.7636959],[-74.1999903,39.7636027],[-74.1997023,39.7634801],[-74.1989111,39.7631333],[-74.1985076,39.7629565],[-74.198358,39.762892],[-74.1978055,39.762654],[-74.1972694,39.762423],[-74.1970928,39.7623469],[-74.1968767,39.7626493],[-74.1965282,39.7634555],[-74.1962502,39.7637889],[-74.1953186,39.7638931],[-74.1953539,39.7642487],[-74.1949917,39.7648521],[-74.1558459,39.7549475]]]}}
